{"type": "FeatureCollection", "features": [ {"type": "Feature", "properties": {"norad_id": 37470, "name": "FENGYUN 1C DEB", "group": "fengyun-1c-debris", "lat": -60.05648950508005, "lon": -58.50359560405539, "alt_km": 567.4978765938777, "timestamp": "2025-12-18T17:50:15.245874+00:00", "meta": {"OBJECT_NAME": "FENGYUN 1C DEB", "OBJECT_ID": "1999-025EJQ", "EPOCH": "2025-12-17T08:47:23.171424", "MEAN_MOTION": 15.01909134, "ECCENTRICITY": 5.244e-05, "INCLINATION": 98.6682, "RA_OF_ASC_NODE": 135.3168, "ARG_OF_PERICENTER": 304.7318, "MEAN_ANOMALY": 55.3854, "EPHEMERIS_TYPE": 0, "CLASSIFICATION_TYPE": "U", "NORAD_CAT_ID": 37470, "ELEMENT_SET_NO": 999, "REV_AT_EPOCH": 65531, "BSTAR": 0.0040318485, "MEAN_MOTION_DOT": 0.00053013, "MEAN_MOTION_DDOT": 0}, "tle": {"line1": "1 37470U 99025EJQ 25351.36624041  .00053013  00000+0  40318-2 0  9997", "line2": "2 37470  98.6682 135.3168 0000524 304.7318  55.3854 15.01909134655319"}}, "geometry": {"type": "Point", "coordinates": [-58.50359560405539, -60.05648950508005]}}, {"type": "Feature", "properties": {"norad_id": 37474, "name": "FENGYUN 1C DEB", "group": "fengyun-1c-debris", "lat": -24.962783492758433, "lon": -157.00032992382665, "alt_km": 722.092163568871, "timestamp": "2025-12-18T17:50:15.245884+00:00", "meta": {"OBJECT_NAME": "FENGYUN 1C DEB", "OBJECT_ID": "1999-025EJU", "EPOCH": "2025-12-17T07:46:09.276672", "MEAN_MOTION": 14.7520815, "ECCENTRICITY": 0.01320065, "INCLINATION": 99.1653, "RA_OF_ASC_NODE": 197.0828, "ARG_OF_PERICENTER": 120.7322, "MEAN_ANOMALY": 240.6963, "EPHEMERIS_TYPE": 0, "CLASSIFICATION_TYPE": "U", "NORAD_CAT_ID": 37474, "ELEMENT_SET_NO": 999, "REV_AT_EPOCH": 62443, "BSTAR": 0.00094441555, "MEAN_MOTION_DOT": 7.29e-05, "MEAN_MOTION_DDOT": 0}, "tle": {"line1": "1 37474U 99025EJU 25351.32371848  .00007290  00000+0  94442-3 0  9995", "line2": "2 37474  99.1653 197.0828 0132006 120.7322 240.6963 14.75208150624436"}}, "geometry": {"type": "Point", "coordinates": [-157.00032992382665, -24.962783492758433]}}, {"type": "Feature", "properties": {"norad_id": 37477, "name": "FENGYUN 1C DEB", "group": "fengyun-1c-debris", "lat": 75.88010465360878, "lon": -39.76998815180623, "alt_km": 792.7079584440407, "timestamp": "2025-12-18T17:50:15.245894+00:00", "meta": {"OBJECT_NAME": "FENGYUN 1C DEB", "OBJECT_ID": "1999-025EJX", "EPOCH": "2025-12-16T18:06:36.022176", "MEAN_MOTION": 14.19731482, "ECCENTRICITY": 0.00371355, "INCLINATION": 98.6057, "RA_OF_ASC_NODE": 355.3103, "ARG_OF_PERICENTER": 94.8392, "MEAN_ANOMALY": 265.7026, "EPHEMERIS_TYPE": 0, "CLASSIFICATION_TYPE": "U", "NORAD_CAT_ID": 37477, "ELEMENT_SET_NO": 999, "REV_AT_EPOCH": 81971, "BSTAR": 0.00055952668, "MEAN_MOTION_DOT": 1.15e-05, "MEAN_MOTION_DDOT": 0}, "tle": {"line1": "1 37477U 99025EJX 25350.75458359  .00001150  00000+0  55953-3 0  9990", "line2": "2 37477  98.6057 355.3103 0037135  94.8392 265.7026 14.19731482819713"}}, "geometry": {"type": "Point", "coordinates": [-39.76998815180623, 75.88010465360878]}}, {"type": "Feature", "properties": {"norad_id": 37478, "name": "FENGYUN 1C DEB", "group": "fengyun-1c-debris", "lat": -11.453271635672895, "lon": 152.60673123230012, "alt_km": 1404.094542289915, "timestamp": "2025-12-18T17:50:15.245904+00:00", "meta": {"OBJECT_NAME": "FENGYUN 1C DEB", "OBJECT_ID": "1999-025EJY", "EPOCH": "2025-12-14T05:55:23.732544", "MEAN_MOTION": 13.02983973, "ECCENTRICITY": 0.05482188, "INCLINATION": 99.6498, "RA_OF_ASC_NODE": 330.5496, "ARG_OF_PERICENTER": 315.7365, "MEAN_ANOMALY": 40.1108, "EPHEMERIS_TYPE": 0, "CLASSIFICATION_TYPE": "U", "NORAD_CAT_ID": 37478, "ELEMENT_SET_NO": 999, "REV_AT_EPOCH": 56581, "BSTAR": 0.0055489953, "MEAN_MOTION_DOT": 3.525e-05, "MEAN_MOTION_DDOT": 0}, "tle": {"line1": "1 37478U 99025EJY 25348.24680246  .00003525  00000+0  55490-2 0  9997", "line2": "2 37478  99.6498 330.5496 0548218 315.7365  40.1108 13.02983973565818"}}, "geometry": {"type": "Point", "coordinates": [152.60673123230012, -11.453271635672895]}}, {"type": "Feature", "properties": {"norad_id": 37589, "name": "FENGYUN 1C DEB", "group": "fengyun-1c-debris", "lat": -55.96399566125306, "lon": 61.691824146291104, "alt_km": 788.1920403768354, "timestamp": "2025-12-18T17:50:15.245915+00:00", "meta": {"OBJECT_NAME": "FENGYUN 1C DEB", "OBJECT_ID": "1999-025EKH", "EPOCH": "2025-12-14T22:19:52.787712", "MEAN_MOTION": 14.08203479, "ECCENTRICITY": 0.01182522, "INCLINATION": 99.0734, "RA_OF_ASC_NODE": 251.544, "ARG_OF_PERICENTER": 258.1684, "MEAN_ANOMALY": 100.6202, "EPHEMERIS_TYPE": 0, "CLASSIFICATION_TYPE": "U", "NORAD_CAT_ID": 37589, "ELEMENT_SET_NO": 999, "REV_AT_EPOCH": 82615, "BSTAR": 0.0019842502, "MEAN_MOTION_DOT": 3.566e-05, "MEAN_MOTION_DDOT": 0}, "tle": {"line1": "1 37589U 99025EKH 25348.93047208  .00003566  00000+0  19843-2 0  9998", "line2": "2 37589  99.0734 251.5440 0118252 258.1684 100.6202 14.08203479826151"}}, "geometry": {"type": "Point", "coordinates": [61.691824146291104, -55.96399566125306]}}, {"type": "Feature", "properties": {"norad_id": 37594, "name": "FENGYUN 1C DEB", "group": "fengyun-1c-debris", "lat": 42.091339163821964, "lon": -150.1028416792521, "alt_km": 877.971231244429, "timestamp": "2025-12-18T17:50:15.245925+00:00", "meta": {"OBJECT_NAME": "FENGYUN 1C DEB", "OBJECT_ID": "1999-025EKN", "EPOCH": "2025-12-17T08:50:53.140704", "MEAN_MOTION": 14.11122506, "ECCENTRICITY": 0.00850392, "INCLINATION": 98.7342, "RA_OF_ASC_NODE": 20.5782, "ARG_OF_PERICENTER": 256.4735, "MEAN_ANOMALY": 102.6951, "EPHEMERIS_TYPE": 0, "CLASSIFICATION_TYPE": "U", "NORAD_CAT_ID": 37594, "ELEMENT_SET_NO": 999, "REV_AT_EPOCH": 77827, "BSTAR": 0.00026135684, "MEAN_MOTION_DOT": 4.43e-06, "MEAN_MOTION_DDOT": 0}, "tle": {"line1": "1 37594U 99025EKN 25351.36867061  .00000443  00000+0  26136-3 0  9997", "line2": "2 37594  98.7342  20.5782 0085039 256.4735 102.6951 14.11122506778272"}}, "geometry": {"type": "Point", "coordinates": [-150.1028416792521, 42.091339163821964]}}, {"type": "Feature", "properties": {"norad_id": 37600, "name": "FENGYUN 1C DEB", "group": "fengyun-1c-debris", "lat": 64.01957349324493, "lon": 130.32304154921857, "alt_km": 724.4853782019209, "timestamp": "2025-12-18T17:50:15.245935+00:00", "meta": {"OBJECT_NAME": "FENGYUN 1C DEB", "OBJECT_ID": "1999-025EKU", "EPOCH": "2025-12-18T03:38:55.449888", "MEAN_MOTION": 13.8259192, "ECCENTRICITY": 0.03568536, "INCLINATION": 98.9323, "RA_OF_ASC_NODE": 148.5893, "ARG_OF_PERICENTER": 34.8872, "MEAN_ANOMALY": 327.5121, "EPHEMERIS_TYPE": 0, "CLASSIFICATION_TYPE": "U", "NORAD_CAT_ID": 37600, "ELEMENT_SET_NO": 999, "REV_AT_EPOCH": 88562, "BSTAR": 0.0021516623, "MEAN_MOTION_DOT": 3.767e-05, "MEAN_MOTION_DDOT": 0}, "tle": {"line1": "1 37600U 99025EKU 25352.15203067  .00003767  00000+0  21517-2 0  9992", "line2": "2 37600  98.9323 148.5893 0356853  34.8872 327.5121 13.82591920885622"}}, "geometry": {"type": "Point", "coordinates": [130.32304154921857, 64.01957349324493]}}, {"type": "Feature", "properties": {"norad_id": 37683, "name": "FENGYUN 1C DEB", "group": "fengyun-1c-debris", "lat": 13.80915775682835, "lon": -90.7264443571471, "alt_km": 1158.3426681078781, "timestamp": "2025-12-18T17:50:15.245946+00:00", "meta": {"OBJECT_NAME": "FENGYUN 1C DEB", "OBJECT_ID": "1999-025EKY", "EPOCH": "2025-12-16T14:04:04.253376", "MEAN_MOTION": 13.31921563, "ECCENTRICITY": 0.05852836, "INCLINATION": 98.0024, "RA_OF_ASC_NODE": 269.5626, "ARG_OF_PERICENTER": 115.2366, "MEAN_ANOMALY": 8.0049, "EPHEMERIS_TYPE": 0, "CLASSIFICATION_TYPE": "U", "NORAD_CAT_ID": 37683, "ELEMENT_SET_NO": 999, "REV_AT_EPOCH": 29291, "BSTAR": 0.0012826469, "MEAN_MOTION_DOT": 1.595e-05, "MEAN_MOTION_DDOT": 0}, "tle": {"line1": "1 37683U 99025EKY 25350.58616034  .00001595  00000+0  12826-2 0  9990", "line2": "2 37683  98.0024 269.5626 0585283 115.2366   8.0049 13.31921563292911"}}, "geometry": {"type": "Point", "coordinates": [-90.7264443571471, 13.80915775682835]}}, {"type": "Feature", "properties": {"norad_id": 37686, "name": "FENGYUN 1C DEB", "group": "fengyun-1c-debris", "lat": 59.7322998293458, "lon": -153.71720341234, "alt_km": 1117.1379471136006, "timestamp": "2025-12-18T17:50:15.245956+00:00", "meta": {"OBJECT_NAME": "FENGYUN 1C DEB", "OBJECT_ID": "1999-025ELB", "EPOCH": "2025-12-15T20:02:19.291200", "MEAN_MOTION": 13.35366399, "ECCENTRICITY": 0.03959537, "INCLINATION": 99.0216, "RA_OF_ASC_NODE": 7.9106, "ARG_OF_PERICENTER": 34.5937, "MEAN_ANOMALY": 145.9696, "EPHEMERIS_TYPE": 0, "CLASSIFICATION_TYPE": "U", "NORAD_CAT_ID": 37686, "ELEMENT_SET_NO": 999, "REV_AT_EPOCH": 60668, "BSTAR": 0.00056833835, "MEAN_MOTION_DOT": 4.14e-06, "MEAN_MOTION_DDOT": 0}, "tle": {"line1": "1 37686U 99025ELB 25349.83494550  .00000414  00000+0  56834-3 0  9993", "line2": "2 37686  99.0216   7.9106 0395953  34.5937 145.9696 13.35366399606681"}}, "geometry": {"type": "Point", "coordinates": [-153.71720341234, 59.7322998293458]}}, {"type": "Feature", "properties": {"norad_id": 37687, "name": "FENGYUN 1C DEB", "group": "fengyun-1c-debris", "lat": 16.4163892900236, "lon": -150.4237852108862, "alt_km": 1189.4648215750367, "timestamp": "2025-12-18T17:50:15.245966+00:00", "meta": {"OBJECT_NAME": "FENGYUN 1C DEB", "OBJECT_ID": "1999-025ELC", "EPOCH": "2025-12-14T21:46:20.279424", "MEAN_MOTION": 13.85346082, "ECCENTRICITY": 0.03333739, "INCLINATION": 98.2067, "RA_OF_ASC_NODE": 23.7727, "ARG_OF_PERICENTER": 352.7982, "MEAN_ANOMALY": 129.6123, "EPHEMERIS_TYPE": 0, "CLASSIFICATION_TYPE": "U", "NORAD_CAT_ID": 37687, "ELEMENT_SET_NO": 999, "REV_AT_EPOCH": 83284, "BSTAR": 0.0025058041, "MEAN_MOTION_DOT": 4.365e-05, "MEAN_MOTION_DDOT": 0}, "tle": {"line1": "1 37687U 99025ELC 25348.90717916  .00004365  00000+0  25058-2 0  9997", "line2": "2 37687  98.2067  23.7727 0333373 352.7982 129.6123 13.85346082832840"}}, "geometry": {"type": "Point", "coordinates": [-150.4237852108862, 16.4163892900236]}}]}